KUIPER-00251            
1 67156U 25301Z   26004.62352027  .00025110  00000+0  73611-3 0  9994
2 67156  51.8675  14.8663 0009030 163.7258 196.4019 15.35004951  4075
KUIPER-00252            
1 67157U 25301AA  26004.62977011  .00023863  00000+0  70740-3 0  9994
2 67157  51.8664  14.9057 0009926 175.9914 184.1153 15.34675323  3887
KUIPER-00261            
1 67158U 25301AB  26004.61493915  .00020930  00000+0  59957-3 0  9999
2 67158  51.8706  14.8135 0006357 148.6430 211.4937 15.35860259  3885
KUIPER-00265            
1 67159U 25301AC  26004.58335648 -.00657133  00000+0 -20502-1 0  9999
2 67159  51.8751  14.8466 0000799  88.6051 158.6682 15.35001134  3900
GALILEO 33              
1 67160U 25302A   25352.14605887 -.00000007  00000+0  00000+0 0  9994
2 67160  54.2406 107.2544 0008423 237.6458 122.2317  1.72906186    28
GALILEO B               
1 67161U 25302B   26002.75476967 -.00000025  00000+0  00000+0 0  9990
2 67161  54.2350 106.7647 0007180 268.5393  91.3592  1.72971423   303
GALILEO 33 (139)        
1 67162U 25302C   25356.18244914  .00000006  00000+0  00000+0 0  9992
2 67162  54.2447 107.1379 0000312 196.8367 159.4994  1.73130437   127
STARLINK-35755          
1 67163U 25303A   25351.60835648 -.00002699  85337-5  00000+0 0  9999
2 67163  43.0100  69.0834 0011500 323.6500   9.4800 16.01284782    10
STARLINK-36201          
1 67164U 25303B   25351.60835648 -.00002699  85337-5  00000+0 0  9990
2 67164  43.0100  69.0834 0011500 323.6500   9.4800 16.01284782    11
STARLINK-36186          
1 67165U 25303C   25351.60835648 -.00002699  85337-5  00000+0 0  9991
2 67165  43.0100  69.0834 0011500 323.6500   9.4800 16.01284782    12
STARLINK-36174          
1 67166U 25303D   25351.60835648 -.00002699  85337-5  00000+0 0  9992
2 67166  43.0100  69.0834 0011500 323.6500   9.4800 16.01284782    13
STARLINK-36198          
1 67167U 25303E   25351.60835648 -.00002699  85337-5  00000+0 0  9993
2 67167  43.0100  69.0834 0011500 323.6500   9.4800 16.01284782    14
